[{"OBJECT_NAME":"NUSAT-49 (KLARA DAN VON NEUMANN)","OBJECT_ID":"2024-149AJ","EPOCH":"2026-03-09T19:09:16.004160","MEAN_MOTION":15.30828857,"ECCENTRICITY":0.00011321,"INCLINATION":97.3807,"RA_OF_ASC_NODE":150.738,"ARG_OF_PERICENTER":286.7761,"MEAN_ANOMALY":73.3356,"EPHEMERIS_TYPE":0,"CLASSIFICATION_TYPE":"U","NORAD_CAT_ID":60500,"ELEMENT_SET_NO":999,"REV_AT_EPOCH":8693,"BSTAR":0.00043568345,"MEAN_MOTION_DOT":0.00012912,"MEAN_MOTION_DDOT":0},{"OBJECT_NAME":"STARLINK-34423","OBJECT_ID":"2025-130Y","EPOCH":"2026-03-09T08:10:14.021184","MEAN_MOTION":15.30204972,"ECCENTRICITY":0.00013139,"INCLINATION":53.1589,"RA_OF_ASC_NODE":89.8674,"ARG_OF_PERICENTER":68.6661,"MEAN_ANOMALY":291.448,"EPHEMERIS_TYPE":0,"CLASSIFICATION_TYPE":"U","NORAD_CAT_ID":64460,"ELEMENT_SET_NO":999,"REV_AT_EPOCH":4065,"BSTAR":0.0010239809,"MEAN_MOTION_DOT":0.00030096,"MEAN_MOTION_DDOT":0}]
