NUSAT-49 (KLARA DAN VO*)
1 60500U 24149AJ  26068.79810190  .00012912  00000+0  43568-3 0  9991
2 60500  97.3807 150.7380 0001132 286.7761  73.3356 15.30828857 86935
STARLINK-34423          
1 64460U 25130Y   26068.34044006  .00030096  00000+0  10240-2 0  9990
2 64460  53.1589  89.8674 0001313  68.6661 291.4480 15.30204972 40652
